2019 EV9,e,11.4613,166.4413,270.4933,39.43102,0.0039806,0.07113921,101.1294,06/09.0/2026,2000,H 8.87,0.15
# From MPO907142
2019 EW9,e,11.1149,169.5302,114.8438,46.31427,0.0031270,0.23683844,286.1516,06/09.0/2026,2000,H 7.23,0.15
# From MPO913445
2019 ED10,e,3.6911,51.7922,125.7810,115.3397,0.0007957,0.65690988,2.0248,06/09.0/2026,2000,H 8.65,0.15
# From MPO937212
2019 EH10,e,1.6883,46.0835,151.6488,43.84676,0.0033947,0.05202385,349.1654,06/09.0/2026,2000,H 8.12,0.15
# From MPEC 2026-MB8
2019 GJ23,e,0.4810,64.7885,57.8741,43.93675,0.0033842,0.08076779,74.2163,06/09.0/2026,2000,H 6.58,0.15
# From MPO665500
2019 GZ129,e,8.5256,117.2868,349.0745,62.33105,0.0020028,0.36940280,62.7244,06/09.0/2026,2000,H 7.06,0.15
# From MPEC 2024-U35
2019 GK183,e,9.5570,89.1296,331.6637,42.89222,0.0035086,0.04742209,147.3708,06/09.0/2026,2000,H 8.59,0.15
# From MPEC 2024-U35
2019 GT184,e,3.9802,54.7616,291.9672,43.99691,0.0033773,0.06235683,205.1653,06/09.0/2026,2000,H 7.94,0.15
# From MPEC 2024-U35
2019 GU184,e,3.1637,108.3328,29.5334,43.91420,0.0033869,0.07440998,46.1671,06/09.0/2026,2000,H 8.65,0.15
# From MPEC 2024-U35
2019 GX184,e,4.6370,123.8556,99.8038,44.02830,0.0033737,0.07699597,332.2331,06/09.0/2026,2000,H 8.27,0.15
# From MPO919006
2019 GY184,e,4.0546,112.5186,282.4516,44.29849,0.0033429,0.06175721,149.9531,06/09.0/2026,2000,H 6.52,0.15
# From MPO987764
2019 GA185,e,3.4555,89.9142,264.3306,45.02038,0.0032628,0.05221405,197.1730,06/09.0/2026,2000,H 6.74,0.15
# From MPEC 2024-U35
2019 GJ185,e,22.7939,43.5796,193.0603,46.15255,0.0031435,0.16834103,343.1103,06/09.0/2026,2000,H 8.95,0.15
# From MPEC 2026-H85
2019 GK185,e,8.0381,199.9727,72.0367,43.24499,0.0034658,0.04266494,259.3747,06/09.0/2026,2000,H 7.26,0.15
# From MPEC 2024-RZ1
2019 GG186,e,12.7246,193.3961,229.5343,44.30509,0.0033421,0.17250155,92.2049,06/09.0/2026,2000,H 7.84,0.15
# From MPO840122
2019 GH186,e,29.3839,177.4266,66.9287,47.28584,0.0030311,0.15327461,305.0994,06/09.0/2026,2000,H 8.62,0.15
# From MPO956060
2019 GL186,e,6.6993,301.3816,9.2207,39.36063,0.0039913,0.17202942,238.8859,06/09.0/2026,2000,H 7.43,0.15
# From MPO840122
2019 GM186,e,6.2225,282.2117,316.9569,41.80997,0.0036457,0.07348980,303.5943,06/09.0/2026,2000,H 8.07,0.15
# From MPO840122
2019 GN186,e,21.1566,179.1193,277.6180,47.05061,0.0030539,0.16962249,57.6081,06/09.0/2026,2000,H 8.03,0.15
# From MPO840123
2019 GQ186,e,19.8066,184.1301,346.0452,46.71209,0.0030872,0.08282199,1.8533,06/09.0/2026,2000,H 8.93,0.15
# From MPEC 2026-M94
2019 GU186,e,25.6573,334.8583,169.0953,42.21976,0.0035928,0.22120417,25.2961,06/09.0/2026,2000,H 7.71,0.15
# From MPEC 2024-U35
2019 GP187,e,4.1584,81.8783,137.2346,43.89663,0.0033889,0.01110730,334.6973,06/09.0/2026,2000,H 9.62,0.15
# From MPEC 2024-U35
2019 GS187,e,10.6844,18.8871,33.0734,39.47775,0.0039735,0.20803215,120.0401,06/09.0/2026,2000,H 8.18,0.15
# From MPEC 2024-U35
2019 GT187,e,10.4054,19.3481,224.7528,45.58765,0.0032021,0.16828581,322.0667,06/09.0/2026,2000,H 8.76,0.15
# From MPEC 2024-U35
2019 GU187,e,10.0700,166.2772,0.3590,43.31565,0.0034573,0.14296717,20.5892,06/09.0/2026,2000,H 9.18,0.15
# From MPO870944
2019 GP188,e,12.5530,193.1432,129.3767,47.05586,0.0030534,0.16911409,221.2123,06/09.0/2026,2000,H 6.40,0.15
# From MPO870945
2019 GS188,e,15.8135,189.3055,275.5053,43.67205,0.0034151,0.10622070,57.1234,06/09.0/2026,2000,H 7.51,0.15
# From MPO870968
2019 GJ196,e,38.0634,34.6826,344.0401,41.43738,0.0036950,0.10291584,190.4016,06/09.0/2026,2000,H 7.17,0.15
# From MPO972999
2019 GK196,e,29.3347,330.5627,186.5130,41.24874,0.0037204,0.22471692,13.3635,06/09.0/2026,2000,H 9.59,0.15
# From MPO907145
2019 GL196,e,25.1161,284.3594,284.2655,45.32523,0.0032299,0.22504872,319.8244,06/09.0/2026,2000,H 8.23,0.15
# From MPO886024
2019 GX196,e,6.3224,41.8452,254.5153,36.04176,0.0045551,0.12251035,270.4714,06/09.0/2026,2000,H 9.78,0.15
# From MPEC 2024-U35
2019 JA145,e,13.0131,317.4833,332.5950,39.44324,0.0039787,0.17893277,259.6108,06/09.0/2026,2000,H 8.17,0.15
# From MPO894030
2019 JW147,e,7.3776,273.7975,76.6050,43.80916,0.0033990,0.13151772,173.6132,06/09.0/2026,2000,H 7.87,0.15
# From MPO913462
2019 PT99,e,18.5719,85.9878,36.0262,43.08505,0.0034851,0.01647663,183.9766,06/09.0/2026,2000,H 6.87,0.15
# From MPO973031
2019 PV99,e,10.6436,56.9064,295.5482,43.52876,0.0034319,0.10579298,322.3227,06/09.0/2026,2000,H 7.12,0.15
# From MPEC 2024-U45
2019 QS109,e,1.0330,329.7218,232.7717,43.64837,0.0034178,0.05591132,154.0686,06/09.0/2026,2000,H 8.71,0.15
# From MPEC 2024-U35
2019 QT109,e,1.9438,353.9264,18.9845,46.05878,0.0031531,0.11446424,351.3823,06/09.0/2026,2000,H 8.90,0.15
# From MPEC 2024-U35
2019 QU109,e,11.2027,160.2495,225.3380,45.85449,0.0031742,0.09551815,338.0418,06/09.0/2026,2000,H 8.39,0.15
# From MPEC 2024-U35
2019 QY109,e,6.9956,357.8843,202.7716,46.34513,0.0031239,0.09584970,150.6187,06/09.0/2026,2000,H 8.57,0.15
# From MPEC 2024-U35
2019 QZ109,e,5.5557,2.6366,248.1145,44.31321,0.0033412,0.06998332,99.9896,06/09.0/2026,2000,H 8.89,0.15
# From MPEC 2024-U35
2019 QA110,e,2.0718,146.6998,121.5023,45.19259,0.0032442,0.09481149,80.1523,06/09.0/2026,2000,H 7.88,0.15
# From MPEC 2024-U35
2019 QB110,e,3.5751,3.5521,340.1525,42.50147,0.0035571,0.02400960,16.0942,06/09.0/2026,2000,H 8.49,0.15
# From MPEC 2024-U35
2019 QC110,e,0.5749,89.7985,308.4660,45.84501,0.0031752,0.00661660,321.9121,06/09.0/2026,2000,H 7.72,0.15
# From MPEC 2024-U35
2019 QD110,e,2.7711,156.2166,69.6118,43.02743,0.0034921,0.05342326,129.8426,06/09.0/2026,2000,H 9.50,0.15
# From MPEC 2024-U35
2019 QE110,e,1.9679,3.1108,356.8468,43.50961,0.0034342,0.01175669,0.0042,06/09.0/2026,2000,H 8.06,0.15
# From MPEC 2024-U35
2019 QF110,e,2.8178,349.1602,47.9070,43.43980,0.0034425,0.01924271,324.2522,06/09.0/2026,2000,H 9.15,0.15
# From MPEC 2024-U35
2019 QG110,e,0.3411,82.3742,51.8542,43.90131,0.0033883,0.07998342,232.4119,06/09.0/2026,2000,H 8.35,0.15
# From MPEC 2024-U35
2019 QH110,e,0.8864,56.5113,239.9166,44.06770,0.0033692,0.09676543,55.3740,06/09.0/2026,2000,H 8.22,0.15
# From MPEC 2024-U35
2019 QJ110,e,1.4980,138.6342,240.8182,44.00877,0.0033759,0.07104842,343.9751,06/09.0/2026,2000,H 9.28,0.15
# From MPEC 2024-U35
2019 QK110,e,12.2523,356.4666,225.8516,47.65101,0.0029964,0.18526676,118.2505,06/09.0/2026,2000,H 7.46,0.15
# From MPEC 2024-U35
2019 QL110,e,4.0754,156.1870,96.9823,44.34604,0.0033375,0.09569297,95.8962,06/09.0/2026,2000,H 8.74,0.15
# From MPEC 2024-U35
2019 QM110,e,9.1399,359.1330,22.8930,43.06460,0.0034876,0.11568717,344.4400,06/09.0/2026,2000,H 9.47,0.15
# From MPEC 2024-U35
2019 QN110,e,3.0866,150.5093,22.9823,45.52524,0.0032087,0.06839053,186.3338,06/09.0/2026,2000,H 9.19,0.15
# From MPO973036
2019 QO110,e,2.3879,25.0453,123.0848,43.04682,0.0034897,0.04814569,214.8226,06/09.0/2026,2000,H 7.37,0.15
# From MPEC 2024-U35
2019 QP110,e,21.0455,167.7781,263.2159,40.47184,0.0038280,0.09370765,299.7910,06/09.0/2026,2000,H 9.42,0.15
# From MPEC 2024-U35
2019 QQ110,e,6.0869,160.5453,165.7894,44.68076,0.0033001,0.06950079,29.3027,06/09.0/2026,2000,H 8.75,0.15
# From MPEC 2024-U35
2019 QR110,e,1.4463,81.8780,128.4602,43.21033,0.0034699,0.02308715,147.8602,06/09.0/2026,2000,H 8.69,0.15
# From MPEC 2024-U35
2019 QS110,e,1.7368,103.8435,295.1038,44.44429,0.0033264,0.04096452,323.8662,06/09.0/2026,2000,H 8.00,0.15
# From MPEC 2024-U35
2019 QT110,e,7.0025,4.8601,25.0081,45.51372,0.0032099,0.12430672,337.9679,06/09.0/2026,2000,H 8.79,0.15
# From MPEC 2024-U45
2019 QU110,e,1.6903,101.7090,0.5694,45.43124,0.0032186,0.08435628,265.3717,06/09.0/2026,2000,H 8.36,0.15
# From MPEC 2024-U35
2019 QW110,e,2.3122,119.6004,17.4668,42.72822,0.0035288,0.02477028,224.3459,06/09.0/2026,2000,H 8.73,0.15
# From MPO973036
2019 QX110,e,3.4178,23.9355,86.1637,43.68615,0.0034134,0.07593816,257.9550,06/09.0/2026,2000,H 7.41,0.15
# From MPEC 2024-U35
2019 QY110,e,1.9865,111.2359,152.2147,42.62937,0.0035411,0.07795565,88.3699,06/09.0/2026,2000,H 8.50,0.15
# From MPO792229
2019 QZ110,e,10.0039,2.0016,307.0999,39.28725,0.0040025,0.11992392,43.4410,06/09.0/2026,2000,H 9.69,0.15
# From MPEC 2024-U35
2019 QA111,e,3.6919,17.2947,274.4943,44.42417,0.0033287,0.06272067,60.7229,06/09.0/2026,2000,H 8.49,0.15
# From MPEC 2024-U35
2019 QB111,e,24.1811,355.0387,345.4980,42.51891,0.0035549,0.15767901,15.7516,06/09.0/2026,2000,H 9.12,0.15
# From MPO956093
2019 QC111,e,1.7861,50.1077,127.7260,43.18919,0.0034725,0.03529800,179.6973,06/09.0/2026,2000,H 7.27,0.15
# From MPEC 2024-U35
2019 QD111,e,2.7409,43.9286,103.0861,43.10089,0.0034832,0.06320073,216.7444,06/09.0/2026,2000,H 8.93,0.15
# From MPEC 2024-U35
2019 QE111,e,1.8924,78.8045,82.0925,43.90543,0.0033879,0.04579978,198.3461,06/09.0/2026,2000,H 8.46,0.15
# From MPO973036
2019 QF111,e,3.3760,33.8424,184.5284,44.29197,0.0033436,0.07770223,134.5379,06/09.0/2026,2000,H 7.12,0.15
# From MPEC 2024-U35
2019 QG111,e,2.3172,104.4366,165.0527,43.17520,0.0034742,0.04509362,86.4878,06/09.0/2026,2000,H 9.53,0.15
# From MPEC 2024-U35
2019 QH111,e,3.1814,37.1307,178.9035,44.36037,0.0033359,0.07092467,138.5817,06/09.0/2026,2000,H 9.33,0.15
# From MPEC 2024-U35
2019 QJ111,e,2.5377,60.6390,135.7591,42.84831,0.0035140,0.01819852,163.9344,06/09.0/2026,2000,H 8.33,0.15
# From MPEC 2024-U35
2019 QL111,e,2.3568,73.8837,165.6245,43.19442,0.0034719,0.06996571,113.4818,06/09.0/2026,2000,H 8.50,0.15
# From MPEC 2024-U35
2019 QM111,e,2.7310,69.8366,43.0739,44.86753,0.0032795,0.10027119,257.6016,06/09.0/2026,2000,H 8.82,0.15
# From MPEC 2024-U35
2019 QN111,e,2.6388,71.7980,143.9780,44.87417,0.0032788,0.03573717,141.2297,06/09.0/2026,2000,H 8.57,0.15
# From MPO973036
2019 QO111,e,18.1319,1.1908,351.3693,55.36262,0.0023926,0.22435246,5.4315,06/09.0/2026,2000,H 7.25,0.15
# From MPEC 2024-U35
2019 QP111,e,3.1190,103.0003,33.8242,42.41012,0.0035686,0.01210381,224.4963,06/09.0/2026,2000,H 8.52,0.15
# From MPEC 2024-U35
2019 QQ111,e,3.2557,99.2595,336.5426,43.98426,0.0033788,0.02455949,287.1950,06/09.0/2026,2000,H 9.52,0.15
# From MPEC 2024-U35
